LEMUR-2-AMANDA-SVANTE   
1 48269U 21034B   26068.77637527  .00030872  00000+0  11134-2 0  9996
2 48269  97.5829 144.8625 0002703 205.4721 154.6385 15.28469003265849
STARLINK-32770          
1 62741U 25014G   26068.25697484  .00033908  00000+0  12357-2 0  9991
2 62741  42.9954 156.6242 0000407 256.5000 103.5806 15.27588135 63197
